[{"OBJECT_NAME":"SITRO-AIS 28","OBJECT_ID":"2024-039U","EPOCH":"2026-03-09T22:53:08.846304","MEAN_MOTION":14.92876764,"ECCENTRICITY":0.01445021,"INCLINATION":95.3938,"RA_OF_ASC_NODE":167.1162,"ARG_OF_PERICENTER":314.581,"MEAN_ANOMALY":44.3693,"EPHEMERIS_TYPE":0,"CLASSIFICATION_TYPE":"U","NORAD_CAT_ID":59071,"ELEMENT_SET_NO":999,"REV_AT_EPOCH":10993,"BSTAR":0.0004111707,"MEAN_MOTION_DOT":5.19e-5,"MEAN_MOTION_DDOT":0},{"OBJECT_NAME":"STARLINK-35841","OBJECT_ID":"2025-298M","EPOCH":"2026-03-09T22:54:39.942144","MEAN_MOTION":14.99142936,"ECCENTRICITY":0.00019097,"INCLINATION":70.0024,"RA_OF_ASC_NODE":13.923,"ARG_OF_PERICENTER":284.3546,"MEAN_ANOMALY":75.7401,"EPHEMERIS_TYPE":0,"CLASSIFICATION_TYPE":"U","NORAD_CAT_ID":67086,"ELEMENT_SET_NO":999,"REV_AT_EPOCH":1325,"BSTAR":0.00075918804,"MEAN_MOTION_DOT":9.169e-5,"MEAN_MOTION_DDOT":0}]
